[{"OBJECT_NAME":"STARLINK-4293","OBJECT_ID":"2022-076D","EPOCH":"2026-03-09T11:34:38.064000","MEAN_MOTION":15.08841938,"ECCENTRICITY":0.00012872,"INCLINATION":53.2169,"RA_OF_ASC_NODE":105.051,"ARG_OF_PERICENTER":87.2583,"MEAN_ANOMALY":272.8556,"EPHEMERIS_TYPE":0,"CLASSIFICATION_TYPE":"U","NORAD_CAT_ID":52989,"ELEMENT_SET_NO":999,"REV_AT_EPOCH":20267,"BSTAR":4.3883411e-5,"MEAN_MOTION_DOT":4.11e-6,"MEAN_MOTION_DDOT":0},{"OBJECT_NAME":"CZ-2D DEB","OBJECT_ID":"2010-027D","EPOCH":"2026-03-07T13:36:06.977952","MEAN_MOTION":15.23568143,"ECCENTRICITY":0.0065729,"INCLINATION":97.6621,"RA_OF_ASC_NODE":290.9585,"ARG_OF_PERICENTER":344.0278,"MEAN_ANOMALY":15.8885,"EPHEMERIS_TYPE":0,"CLASSIFICATION_TYPE":"U","NORAD_CAT_ID":38299,"ELEMENT_SET_NO":999,"REV_AT_EPOCH":83553,"BSTAR":0.0024156,"MEAN_MOTION_DOT":0.00061723,"MEAN_MOTION_DDOT":0}]
